UME (ISS)               
1 08709U 76019A   24350.04672213  .00000060  00000+0  12366-3 0  9992
2 08709  69.6723 200.6245 0013386 236.7735 286.7948 13.71665901442050
UME-2 (ISS-B)           
1 10674U 78018A   24349.78987288 -.00000015  00000+0  56612-4 0  9991
2 10674  69.3629 279.0603 0165025 340.3658  55.1533 13.43685629296837
ISS (ZARYA)             
1 25544U 98067A   24350.38414332  .00015906  00000+0  27987-3 0  9998
2 25544  51.6382 137.6473 0007546 345.6420  53.1763 15.50608004486657
SWISSCUBE               
1 35932U 09051B   24349.65241712  .00002382  00000+0  50197-3 0  9996
2 35932  98.4485 236.4758 0007982 114.0773 246.1262 14.60398806808886
AISSAT 1                
1 36797U 10035C   24349.86643305  .00005208  00000+0  50161-3 0  9998
2 36797  98.1588 218.1063 0011314  74.1104 286.1361 14.93364429782112
AISSAT 2                
1 40075U 14037G   24349.73645703  .00004378  00000+0  46843-3 0  9997
2 40075  98.3426 278.1076 0003505 254.2489 105.8340 14.89288077564839
ISS (NAUKA)             
1 49044U 21066A   24349.95190958  .00016047  00000+0  28241-3 0  9991
2 49044  51.6381 139.7915 0007433 343.8593 160.5660 15.50594411192151
OUTPOST MISSION 1       
1 56226U 23084BK  24348.58476936  .00021202  00000+0  68770-3 0  9994
2 56226  97.5564 109.7552 0007518  99.2879 260.9213 15.31972143 83531
OUTPOST MISSION 2       
1 58334U 23174CG  24350.15286835  .00021318  00000+0  78771-3 0  9999
2 58334  97.4452  63.8891 0009004 296.2347  63.7966 15.27713661 61279
